XRISM                   
1 57800U 23137A   24291.42503530  .00009928  00000+0  70240-3 0  9999
2 57800  31.0036 313.3215 0008476 338.0416  21.9857 15.03594664 61005
